NORAD_CAT_ID,OBJECT_NAME,OBJECT_TYPE,EPOCH,MEAN_MOTION,ECCENTRICITY,INCLINATION,RA_OF_ASC_NODE,ARG_OF_PERICENTER,MEAN_ANOMALY,BSTAR,MEAN_MOTION_DOT,MEAN_MOTION_DDOT,TLE_LINE0,TLE_LINE1,TLE_LINE2,SEMIMAJOR_AXIS,PERIOD,APOGEE,PERIGEE,DECAYED
54190.0,STARLINK-5281,PAYLOAD,2023-10-20 10:00:44,15.08846366,0.0001379,53.216,305.5366,101.3431,258.7716,0.0002343,3.444e-05,0.0,0 STARLINK-5281,1 54190U 22141AK  23293.41717723  .00003444  00000-0  23430-3 0  9990,2 54190  53.2160 305.5366 0001379 101.3431 258.7716 15.08846366 54696,6917.861,95.437,540.68,538.772,0.0
54190.0,STARLINK-5281,PAYLOAD,2023-10-21 00:19:12,15.08836649,0.0001653,53.2179,302.8572,116.7774,243.3387,3.5566e-05,2.78e-06,0.0,0 STARLINK-5281,1 54190U 22141AK  23294.01334094  .00000278  00000-0  35566-4 0  9999,2 54190  53.2179 302.8572 0001653 116.7774 243.3387 15.08836649 54787,6917.891,95.438,540.899,538.612,0.0
54190.0,STARLINK-5281,PAYLOAD,2023-10-21 08:16:08,15.08842324,0.0001596,53.2165,301.3718,106.6728,253.4439,0.00013579,1.874e-05,0.0,0 STARLINK-5281,1 54190U 22141AK  23294.34454167  .00001874  00000-0  13579-3 0  9991,2 54190  53.2165 301.3718 0001596 106.6728 253.4439 15.08842324 54609,6917.873,95.437,540.842,538.634,0.0
54190.0,STARLINK-5281,PAYLOAD,2023-10-21 17:48:27,15.08839504,0.0001731,53.2175,299.5898,84.6084,275.5105,0.00010498,1.383e-05,0.0,0 STARLINK-5281,1 54190U 22141AK  23294.74198515  .00001383  00000-0  10498-3 0  9999,2 54190  53.2175 299.5898 0001731  84.6084 275.5105 15.08839504 54665,6917.882,95.438,540.944,538.549,0.0
54190.0,STARLINK-5281,PAYLOAD,2023-10-22 04:56:09,15.08838536,0.0001726,53.2172,297.5078,84.928,275.1909,0.00010578,1.396e-05,0.0,0 STARLINK-5281,1 54190U 22141AK  23295.20566672  .00001396  00000-0  10578-3 0  9997,2 54190  53.2172 297.5078 0001726  84.9280 275.1909 15.08838536 54960,6917.885,95.438,540.944,538.556,0.0
54190.0,STARLINK-5281,PAYLOAD,2023-10-22 09:42:18,15.0884546,0.0001516,53.2166,296.6134,92.3497,267.7669,0.00014225,1.977e-05,0.0,0 STARLINK-5281,1 54190U 22141AK  23295.40438177  .00001977  00000-0  14225-3 0  9995,2 54190  53.2166 296.6134 0001516  92.3497 267.7669 15.08845460 54768,6917.864,95.437,540.777,538.68,0.0
54190.0,STARLINK-5281,PAYLOAD,2023-10-22 17:39:14,15.08838052,0.0001602,53.2166,295.1258,100.3777,259.7396,5.2199e-05,5.43e-06,0.0,0 STARLINK-5281,1 54190U 22141AK  23295.73558544  .00000543  00000-0  52199-4 0  9993,2 54190  53.2166 295.1258 0001602 100.3777 259.7396 15.08838052 54819,6917.886,95.438,540.86,538.643,0.0
54190.0,STARLINK-5281,PAYLOAD,2023-10-23 06:22:19,15.08842275,0.0001711,53.2164,292.7462,104.5949,255.5233,0.00012111,1.64e-05,0.0,0 STARLINK-5281,1 54190U 22141AK  23296.26550500  .00001640  00000-0  12111-3 0  9994,2 54190  53.2164 292.7462 0001711 104.5949 255.5233 15.08842275 55126,6917.873,95.437,540.922,538.555,0.0
54190.0,STARLINK-5281,PAYLOAD,2023-10-23 17:30:01,15.08837336,0.0001582,53.216,290.6664,93.0018,267.1155,6.6743e-05,7.74e-06,0.0,0 STARLINK-5281,1 54190U 22141AK  23296.72918897  .00000774  00000-0  66743-4 0  9990,2 54190  53.2160 290.6664 0001582  93.0018 267.1155 15.08837336 55199,6917.889,95.438,540.848,538.659,0.0
54190.0,STARLINK-5281,PAYLOAD,2023-10-24 09:23:53,15.088414,0.000153,53.2167,287.6924,94.2816,265.8351,7.8689e-05,9.65e-06,0.0,0 STARLINK-5281,1 54190U 22141AK  23297.39158731  .00000965  00000-0  78689-4 0  9991,2 54190  53.2167 287.6924 0001530  94.2816 265.8351 15.08841400 55069,6917.876,95.437,540.8,538.683,0.0
54190.0,STARLINK-5281,PAYLOAD,2023-10-25 09:14:39,15.08852776,0.0001626,53.2179,283.2313,94.4685,265.6492,-1.6225e-06,-3.14e-06,0.0,0 STARLINK-5281,1 54190U 22141AK  23298.38518170 -.00000314  00000-0 -16225-5 0  9997,2 54190  53.2179 283.2313 0001626  94.4685 265.6492 15.08852776 55442,6917.841,95.437,540.831,538.581,0.0
54190.0,STARLINK-5281,PAYLOAD,2023-10-26 02:43:54,15.08837961,0.0001532,53.2173,279.9582,97.3672,262.7495,7.2555e-05,8.67e-06,0.0,0 STARLINK-5281,1 54190U 22141AK  23299.11383043  .00000867  00000-0  72555-4 0  9996,2 54190  53.2173 279.9582 0001532  97.3672 262.7495 15.08837961 55552,6917.887,95.438,540.811,538.692,0.0
54190.0,STARLINK-5281,PAYLOAD,2023-10-26 05:54:41,15.0884233,0.0001437,53.2172,279.366,90.2042,269.9115,8.4554e-05,1.058e-05,0.0,0 STARLINK-5281,1 54190U 22141AK  23299.24630805  .00001058  00000-0  84554-4 0  9996,2 54190  53.2172 279.3660 0001437  90.2042 269.9115 15.08842330 55340,6917.873,95.437,540.732,538.744,0.0
54190.0,STARLINK-5281,PAYLOAD,2023-10-26 15:26:59,15.0884061,0.0001442,53.2171,277.5826,92.0639,268.0519,4.3319e-05,4.02e-06,0.0,0 STARLINK-5281,1 54190U 22141AK  23299.64374968  .00000402  00000-0  43319-4 0  9991,2 54190  53.2171 277.5826 0001442  92.0639 268.0519 15.08840610 55405,6917.879,95.438,540.741,538.746,0.0
54190.0,STARLINK-5281,PAYLOAD,2023-10-27 04:10:04,15.08841071,0.0001417,53.2167,275.2033,95.7925,264.3229,0.00018575,2.67e-05,0.0,0 STARLINK-5281,1 54190U 22141AK  23300.17366654  .00002670  00000-0  18575-3 0  9999,2 54190  53.2167 275.2033 0001417  95.7925 264.3229 15.08841071 55718,6917.877,95.437,540.722,538.762,0.0
54190.0,STARLINK-5281,PAYLOAD,2023-10-27 05:45:27,15.08858479,0.0001315,53.2173,274.9056,95.5174,264.5968,9.9474e-05,1.296e-05,0.0,0 STARLINK-5281,1 54190U 22141AK  23300.23989695  .00001296  00000-0  99474-4 0  9993,2 54190  53.2173 274.9056 0001315  95.5174 264.5968 15.08858479 55720,6917.824,95.436,540.599,538.779,0.0
54190.0,STARLINK-5281,PAYLOAD,2023-10-27 15:17:46,15.08841765,0.0001293,53.2175,273.1208,81.6202,278.4937,-3.5085e-05,-8.46e-06,0.0,0 STARLINK-5281,1 54190U 22141AK  23300.63734782 -.00000846  00000-0 -35085-4 0  9992,2 54190  53.2175 273.1208 0001293  81.6202 278.4937 15.08841765 55781,6917.875,95.437,540.634,538.846,0.0
54190.0,STARLINK-5281,PAYLOAD,2023-10-27 21:39:20,15.08822524,0.0001921,53.2159,271.9321,81.9443,278.1767,-0.00016066,-2.843e-05,0.0,0 STARLINK-5281,1 54190U 22141AK  23300.90231776 -.00002843  00000-0 -16066-3 0  9993,2 54190  53.2159 271.9321 0001921  81.9443 278.1767 15.08822524 55592,6917.934,95.439,541.128,538.47,0.0
54190.0,STARLINK-5281,PAYLOAD,2023-10-28 05:36:16,15.08816422,0.0001545,53.2162,270.4461,85.6991,274.4178,-0.00024352,-4.159e-05,0.0,0 STARLINK-5281,1 54190U 22141AK  23301.23352417 -.00004159  00000-0 -24352-3 0  9995,2 54190  53.2162 270.4461 0001545  85.6991 274.4178 15.08816422 55647,6917.952,95.439,540.886,538.749,0.0
54190.0,STARLINK-5281,PAYLOAD,2023-10-28 21:30:07,15.08831841,0.0001308,53.2162,267.4682,88.8437,271.2705,5.9973e-05,6.67e-06,0.0,0 STARLINK-5281,1 54190U 22141AK  23301.89592205  .00000667  00000-0  59973-4 0  9994,2 54190  53.2162 267.4682 0001308  88.8437 271.2705 15.08831841 55749,6917.905,95.438,540.675,538.865,0.0
54190.0,STARLINK-5281,PAYLOAD,2023-10-29 03:51:39,15.08842163,0.0001316,53.2163,266.2842,93.6709,266.4434,0.00032403,4.873e-05,0.0,0 STARLINK-5281,1 54190U 22141AK  23302.16087914  .00004873  00000-0  32403-3 0  9992,2 54190  53.2163 266.2842 0001316  93.6709 266.4434 15.08842163 56015,6917.874,95.437,540.649,538.828,0.0
54190.0,STARLINK-5281,PAYLOAD,2023-10-29 07:02:25,15.08856769,0.0001518,53.2165,265.686,95.0319,265.0847,0.0005428,8.365e-05,0.0,0 STARLINK-5281,1 54190U 22141AK  23302.29335303  .00008365  00000-0  54280-3 0  9991,2 54190  53.2165 265.6860 0001518  95.0319 265.0847 15.08856769 56039,6917.829,95.436,540.744,538.644,0.0
54190.0,STARLINK-5281,PAYLOAD,2023-10-29 21:20:54,15.08848283,0.0001452,53.2166,263.0118,95.8129,264.3028,0.00059769,9.239e-05,0.0,0 STARLINK-5281,1 54190U 22141AK  23302.88951958  .00009239  00000-0  59769-3 0  9994,2 54190  53.2166 263.0118 0001452  95.8129 264.3028 15.08848283 55890,6917.855,95.437,540.725,538.716,0.0
54190.0,STARLINK-5281,PAYLOAD,2023-10-30 03:42:27,15.08832698,0.0001661,53.2174,261.8216,87.4698,272.6485,-5.2174e-05,-1.118e-05,0.0,0 STARLINK-5281,1 54190U 22141AK  23303.15448279 -.00001118  00000-0 -52174-4 0  9996,2 54190  53.2174 261.8216 0001661  87.4698 272.6485 15.08832698 56167,6917.903,95.438,540.917,538.619,0.0
54190.0,STARLINK-5281,PAYLOAD,2023-10-30 06:53:12,15.0887255,0.0001462,53.2179,261.2259,89.9338,270.1822,0.00083113,0.00012976,0.0,0 STARLINK-5281,1 54190U 22141AK  23303.28694847  .00012976  00000-0  83113-3 0  9992,2 54190  53.2179 261.2259 0001462  89.9338 270.1822 15.08872550 56181,6917.781,95.435,540.657,538.635,0.0
54190.0,STARLINK-5281,PAYLOAD,2023-10-30 14:50:08,15.08840923,0.0001415,53.2178,259.7383,91.4008,268.7146,-7.5483e-05,-1.489e-05,0.0,0 STARLINK-5281,1 54190U 22141AK  23303.61815542 -.00001489  00000-0 -75483-4 0  9997,2 54190  53.2178 259.7383 0001415  91.4008 268.7146 15.08840923 56237,6917.878,95.437,540.721,538.764,0.0
54190.0,STARLINK-5281,PAYLOAD,2023-10-31 03:33:13,15.08846511,0.0001468,53.2178,257.359,95.5752,264.5407,0.00017113,2.437e-05,0.0,0 STARLINK-5281,1 54190U 22141AK  23304.14807577  .00002437  00000-0  17113-3 0  9992,2 54190  53.2178 257.3590 0001468  95.5752 264.5407 15.08846511 56086,6917.86,95.437,540.741,538.71,0.0
54190.0,STARLINK-5281,PAYLOAD,2023-10-31 21:02:28,15.08845008,0.0001366,53.2159,254.0889,88.1148,272.0001,0.00024271,3.577e-05,0.0,0 STARLINK-5281,1 54190U 22141AK  23304.87671737  .00003577  00000-0  24271-3 0  9998,2 54190  53.2159 254.0889 0001366  88.1148 272.0001 15.08845008 56190,6917.865,95.437,540.675,538.785,0.0
54190.0,STARLINK-5281,PAYLOAD,2023-11-01 03:24:00,15.08856044,0.0001258,53.2171,252.8994,92.1738,267.9398,0.00050554,7.77e-05,0.0,0 STARLINK-5281,1 54190U 22141AK  23305.14167316  .00007770  00000-0  50554-3 0  9994,2 54190  53.2171 252.8994 0001258  92.1738 267.9398 15.08856044 56461,6917.831,95.437,540.567,538.826,0.0
54190.0,STARLINK-5281,PAYLOAD,2023-11-01 06:34:46,15.08859625,0.0001317,53.2178,252.3055,92.5773,267.537,0.00055488,8.559e-05,0.0,0 STARLINK-5281,1 54190U 22141AK  23305.27415058  .00008559  00000-0  55488-3 0  9994,2 54190  53.2178 252.3055 0001317  92.5773 267.5370 15.08859625 56251,6917.82,95.436,540.596,538.774,0.0
